ORBCOMM FM37 [-]        
1 33064U 08031E   23347.40995657  .00001224  00000+0  20762-3 0  9990
2 33064  48.4420  77.7117 0005838 183.1456 291.4405 14.75553305832457
ORBCOMM FM40 [-]        
1 33065U 08031F   23347.45814149  .00001478  00000+0  23826-3 0  9997
2 33065  48.4438  68.1909 0007245 190.0123 261.0773 14.76685142832482
VESSELSAT 1 [-]         
1 37840U 11058C   23346.94391028  .00000363  00000+0  53383-4 0  9998
2 37840  19.9604 194.7859 0013798 232.7506 127.1640 14.11092737628203
ORBCOMM FM109 [+]       
1 40086U 14040A   23347.42839439  .00000642  00000+0  18169-3 0  9997
2 40086  47.0036  97.9195 0002591 282.7758  77.2837 14.56161359500590
ORBCOMM FM107 [+]       
1 40087U 14040B   23347.46243915  .00000633  00000+0  17967-3 0  9995
2 40087  47.0055  98.6998 0002353 255.3935 104.6689 14.56154879500713
ORBCOMM FM106 [-]       
1 40088U 14040C   23346.93538229  .00001022  00000+0  21609-3 0  9993
2 40088  47.0628 325.2506 0018189  23.3574 336.8139 14.66338534502343
ORBCOMM FM111 [-]       
1 40089U 14040D   23347.82366033  .00001547  00000+0  22502-3 0  9990
2 40089  47.0039 239.2833 0032714  83.2324 277.2291 14.80570103508377
ORBCOMM FM104 [-]       
1 40090U 14040E   23347.49040325  .00000506  00000+0  15575-3 0  9994
2 40090  47.0046 125.8525 0017755 208.1981 151.7943 14.54693314500249
